OBJECT_NAME,OBJECT_ID,EPOCH,MEAN_MOTION,ECCENTRICITY,INCLINATION,RA_OF_ASC_NODE,ARG_OF_PERICENTER,MEAN_ANOMALY,EPHEMERIS_TYPE,CLASSIFICATION_TYPE,NORAD_CAT_ID,ELEMENT_SET_NO,REV_AT_EPOCH,BSTAR,MEAN_MOTION_DOT,MEAN_MOTION_DDOT
WILDBLUE-1,2006-054A,2025-03-10T20:48:02.263968,1.00271997,.0002019,1.6043,86.5445,259.4831,23.5442,0,U,29643,999,4914,0,-.65E-6,0
ASTRA 1L,2007-016A,2025-03-10T20:52:38.793216,1.00274491,.0004293,0.1309,68.8398,268.4416,164.0256,0,U,31306,999,4034,0,.103E-5,0
GALAXY 17 (G-17),2007-016B,2025-03-10T19:28:16.364064,1.00274056,.0005125,1.7959,85.8588,206.4020,83.5018,0,U,31307,999,6515,0,-.223E-5,0
ZHONGXING-6B,2007-031A,2025-03-10T21:20:38.761728,1.00273466,.0004397,1.2004,87.3626,250.5078,266.3760,0,U,31800,999,6478,0,-.378E-5,0
DIRECTV 10,2007-032A,2025-03-10T14:14:34.069632,1.00272042,.0000529,0.0120,282.8281,76.3971,280.1082,0,U,31862,999,4094,0,-.12E-5,0
OPTUS D2,2007-044A,2025-03-10T18:55:26.082048,1.00272484,.0005931,0.8733,88.0030,242.2904,282.3675,0,U,32252,999,6392,0,-.127E-5,0
INTELSAT 11 (IS-11),2007-044B,2025-03-10T19:40:16.984992,1.00270821,.0003274,2.3559,84.4202,269.4299,66.9223,0,U,32253,999,6384,0,-.285E-5,0
WGS F1 (USA 195),2007-046A,2025-03-10T19:40:24.491424,1.00272244,.0000474,0.0894,89.8983,254.0426,77.3666,0,U,32258,999,4768,0,-.284E-5,0
SKYNET 5B,2007-056B,2025-03-10T19:59:40.486272,1.00274232,.0003997,4.0691,79.0235,275.9308,138.7751,0,U,32294,999,6355,0,.125E-5,0
HORIZONS-2,2007-063B,2025-03-10T19:31:09.012864,1.00273404,.0002168,1.4034,86.4281,266.7279,34.5338,0,U,32388,999,6316,0,-.27E-5,0
THURAYA-3,2008-001A,2025-03-10T20:20:37.699584,1.00271219,.0002392,5.2401,34.2771,308.7588,229.3613,0,U,32404,999,6284,0,-.316E-5,0
AMC-14,2008-011A,2025-03-09T01:44:38.884128,1.00274965,.0044469,23.4341,26.1128,355.2141,189.2989,0,U,32708,999,6343,0,.61E-6,0
DIRECTV 11,2008-013A,2025-03-10T14:15:34.121952,1.00270827,.0000372,0.0365,0.6062,314.0602,328.5246,0,U,32729,999,4094,0,-.143E-5,0
ICO G1,2008-016A,2025-03-10T12:20:38.734080,1.00272273,.0002458,5.3207,36.5671,307.8965,276.2699,0,U,32763,999,6189,0,-.186E-5,0
VINASAT-1,2008-018A,2025-03-10T17:48:38.794752,1.00271053,.0002093,0.0490,290.6572,90.1424,186.9291,0,U,32767,999,6194,0,-.346E-5,0
STAR ONE C2,2008-018B,2025-03-10T19:33:46.648800,1.00270748,.0002904,0.0650,64.9257,293.2048,39.0071,0,U,32768,999,6200,0,-.294E-5,0
AMOS-3,2008-022A,2025-03-10T19:51:17.552736,1.00271306,.0003157,0.0341,241.3180,75.6913,145.3902,0,U,32794,999,7768,0,-.53E-6,0
GALAXY 18 (G-18),2008-024A,2025-03-10T14:08:48.772032,1.00272193,.0003039,0.0186,141.7642,205.6511,270.2509,0,U,32951,999,4120,0,.8E-7,0
ZHONGXING-9,2008-028A,2025-03-10T19:56:38.634144,1.00270676,.0004665,0.0179,129.0126,236.9195,194.1482,0,U,33051,999,6139,0,-.265E-5,0
SKYNET 5C,2008-030A,2025-03-10T19:47:24.853344,1.00272205,.0005323,2.5972,82.4788,271.2548,94.0258,0,U,33055,999,6131,0,-.156E-5,0
TURKSAT 3A,2008-030B,2025-03-10T20:04:33.237120,1.00270248,.0004385,0.0468,88.0420,276.1233,147.6668,0,U,33056,999,4771,0,.129E-5,0
