WILDBLUE-1              
1 29643U 06054A   25069.86669287 -.00000065  00000+0  00000+0 0  9993
2 29643   1.6043  86.5445 0002019 259.4831  23.5442  1.00271997 49140
ASTRA 1L                
1 31306U 07016A   25069.86989344  .00000103  00000+0  00000+0 0  9992
2 31306   0.1309  68.8398 0004293 268.4416 164.0256  1.00274491 40342
GALAXY 17 (G-17)        
1 31307U 07016B   25069.81130051 -.00000223  00000+0  00000+0 0  9995
2 31307   1.7959  85.8588 0005125 206.4020  83.5018  1.00274056 65153
ZHONGXING-6B            
1 31800U 07031A   25069.88933752 -.00000378  00000+0  00000+0 0  9997
2 31800   1.2004  87.3626 0004397 250.5078 266.3760  1.00273466 64787
DIRECTV 10              
1 31862U 07032A   25069.59344988 -.00000121  00000+0  00000+0 0  9997
2 31862   0.0120 282.8281 0000529  76.3971 280.1082  1.00272042 64756
OPTUS D2                
1 32252U 07044A   25069.78849632 -.00000127  00000+0  00000+0 0  9997
2 32252   0.8733  88.0030 0005931 242.2904 282.3675  1.00272484 63928
INTELSAT 11 (IS-11)     
1 32253U 07044B   25069.81964103 -.00000285  00000+0  00000+0 0  9998
2 32253   2.3559  84.4202 0003274 269.4299  66.9223  1.00270821 63848
WGS F1 (USA 195)        
1 32258U 07046A   25069.81972791 -.00000284  00000+0  00000+0 0  9996
2 32258   0.0894  89.8983 0000474 254.0426  77.3666  1.00272244 47688
SKYNET 5B               
1 32294U 07056B   25069.83310748  .00000125  00000+0  00000+0 0  9990
2 32294   4.0691  79.0235 0003997 275.9308 138.7751  1.00274232 63552
HORIZONS-2              
1 32388U 07063B   25069.81329876 -.00000270  00000+0  00000+0 0  9994
2 32388   1.4034  86.4281 0002168 266.7279  34.5338  1.00273404 63166
THURAYA-3               
1 32404U 08001A   25069.84765856 -.00000316  00000+0  00000+0 0  9992
2 32404   5.2401  34.2771 0002392 308.7588 229.3613  1.00271219 62845
AMC-14                  
1 32708U 08011A   25068.07267227  .00000061  00000+0  00000+0 0  9999
2 32708  23.4341  26.1128 0044469 355.2141 189.2989  1.00274965 63433
DIRECTV 11              
1 32729U 08013A   25069.59414493 -.00000143  00000+0  00000+0 0  9993
2 32729   0.0365   0.6062 0000372 314.0602 328.5246  1.00270827 40945
ICO G1                  
1 32763U 08016A   25069.51433720 -.00000186  00000+0  00000+0 0  9997
2 32763   5.3207  36.5671 0002458 307.8965 276.2699  1.00272273 61894
VINASAT-1               
1 32767U 08018A   25069.74211568 -.00000346  00000+0  00000+0 0  9990
2 32767   0.0490 290.6572 0002093  90.1424 186.9291  1.00271053 61940
STAR ONE C2             
1 32768U 08018B   25069.81512325 -.00000294  00000+0  00000+0 0  9996
2 32768   0.0650  64.9257 0002904 293.2048  39.0071  1.00270748 62002
AMOS-3                  
1 32794U 08022A   25069.82728649 -.00000053  00000+0  00000+0 0  9992
2 32794   0.0341 241.3180 0003157  75.6913 145.3902  1.00271306 77683
GALAXY 18 (G-18)        
1 32951U 08024A   25069.58945338  .00000008  00000+0  00000+0 0  9997
2 32951   0.0186 141.7642 0003039 205.6511 270.2509  1.00272193 41204
ZHONGXING-9             
1 33051U 08028A   25069.83100271 -.00000265  00000+0  00000+0 0  9996
2 33051   0.0179 129.0126 0004665 236.9195 194.1482  1.00270676 61395
SKYNET 5C               
1 33055U 08030A   25069.82459321 -.00000156  00000+0  00000+0 0  9994
2 33055   2.5972  82.4788 0005323 271.2548  94.0258  1.00272205 61310
TURKSAT 3A              
1 33056U 08030B   25069.83649580  .00000129  00000+0  00000+0 0  9993
2 33056   0.0468  88.0420 0004385 276.1233 147.6668  1.00270248 47714
